[
    {
        "Altitude(m)": 706014.8221318906,
        "Argument of Periapsis(deg)": 0.0022780242373254137,
        "Eccentricity": 0.0,
        "Inclination(deg)": 45.0,
        "Latitude(deg)": 39.25216682842788,
        "Longitude(deg)": -99.49170194199422,
        "Mean Anomaly(deg)": 116.8521433294962,
        "RAAN(deg)": 234.99784961170838,
        "Satellite Name": "Constellation 1 1041",
        "Satellite Number": 1041,
        "Semi-Major Axis(m)": 7083131.272910544,
        "Time(s)": 38
    },
    {
        "Altitude(m)": 706009.5314092687,
        "Argument of Periapsis(deg)": 0.002337972243570819,
        "Eccentricity": 0.0,
        "Inclination(deg)": 45.0,
        "Latitude(deg)": 39.22705680184763,
        "Longitude(deg)": -99.4245430236691,
        "Mean Anomaly(deg)": 116.91284446974606,
        "RAAN(deg)": 234.99779302254277,
        "Satellite Name": "Constellation 1 1041",
        "Satellite Number": 1041,
        "Semi-Major Axis(m)": 7083131.272910544,
        "Time(s)": 39
    },
    {
        "Altitude(m)": 706004.2338161708,
        "Argument of Periapsis(deg)": 0.0023979202498162246,
        "Eccentricity": 0.0,
        "Inclination(deg)": 45.0,
        "Latitude(deg)": 39.201903109221696,
        "Longitude(deg)": -99.35743488491089,
        "Mean Anomaly(deg)": 116.97354560999592,
        "RAAN(deg)": 234.99773643337718,
        "Satellite Name": "Constellation 1 1041",
        "Satellite Number": 1041,
        "Semi-Major Axis(m)": 7083131.272910544,
        "Time(s)": 40
    },
    {
        "Altitude(m)": 705998.9293849816,
        "Argument of Periapsis(deg)": 0.00245786825606163,
        "Eccentricity": 0.0,
        "Inclination(deg)": 45.0,
        "Latitude(deg)": 39.1767058199439,
        "Longitude(deg)": -99.29037753193572,
        "Mean Anomaly(deg)": 117.03424675024586,
        "RAAN(deg)": 234.99767984421163,
        "Satellite Name": "Constellation 1 1041",
        "Satellite Number": 1041,
        "Semi-Major Axis(m)": 7083131.272910544,
        "Time(s)": 41
    },
    {
        "Altitude(m)": 705993.6181481242,
        "Argument of Periapsis(deg)": 0.002517816262307036,
        "Eccentricity": 0.0,
        "Inclination(deg)": 45.0,
        "Latitude(deg)": 39.151465003396396,
        "Longitude(deg)": -99.22337097055114,
        "Mean Anomaly(deg)": 117.09494789049576,
        "RAAN(deg)": 234.99762325504608,
        "Satellite Name": "Constellation 1 1041",
        "Satellite Number": 1041,
        "Semi-Major Axis(m)": 7083131.272910544,
        "Time(s)": 42
    },
    {
        "Altitude(m)": 705988.3001380855,
        "Argument of Periapsis(deg)": 0.0025777642685524413,
        "Eccentricity": 0.0,
        "Inclination(deg)": 45.0,
        "Latitude(deg)": 39.12618072894916,
        "Longitude(deg)": -99.15641520615671,
        "Mean Anomaly(deg)": 117.15564903074569,
        "RAAN(deg)": 234.99756666588047,
        "Satellite Name": "Constellation 1 1041",
        "Satellite Number": 1041,
        "Semi-Major Axis(m)": 7083131.272910544,
        "Time(s)": 43
    },
    {
        "Altitude(m)": 705982.9753873819,
        "Argument of Periapsis(deg)": 0.002637712274797847,
        "Eccentricity": 0.0,
        "Inclination(deg)": 45.0,
        "Latitude(deg)": 39.10085306595955,
        "Longitude(deg)": -99.08951041184308,
        "Mean Anomaly(deg)": 117.21635017099554,
        "RAAN(deg)": 234.99751007671492,
        "Satellite Name": "Constellation 1 1041",
        "Satellite Number": 1041,
        "Semi-Major Axis(m)": 7083131.272910544,
        "Time(s)": 44
    },
    {
        "Altitude(m)": 705977.643928599,
        "Argument of Periapsis(deg)": 0.0026976602810432526,
        "Eccentricity": 0.0,
        "Inclination(deg)": 45.0,
        "Latitude(deg)": 39.07548208377141,
        "Longitude(deg)": -99.02265625600565,
        "Mean Anomaly(deg)": 117.27705131124547,
        "RAAN(deg)": 234.99745348754936,
        "Satellite Name": "Constellation 1 1041",
        "Satellite Number": 1041,
        "Semi-Major Axis(m)": 7083131.272910544,
        "Time(s)": 45
    },
    {
        "Altitude(m)": 705972.3057943563,
        "Argument of Periapsis(deg)": 0.0027576082872886585,
        "Eccentricity": 0.0,
        "Inclination(deg)": 45.0,
        "Latitude(deg)": 39.05006785171509,
        "Longitude(deg)": -98.95585291092708,
        "Mean Anomaly(deg)": 117.33775245149536,
        "RAAN(deg)": 234.99739689838378,
        "Satellite Name": "Constellation 1 1041",
        "Satellite Number": 1041,
        "Semi-Major Axis(m)": 7083131.272910544,
        "Time(s)": 46
    },
    {
        "Altitude(m)": 705966.9610173239,
        "Argument of Periapsis(deg)": 0.0028175562935340644,
        "Eccentricity": 0.0,
        "Inclination(deg)": 45.0,
        "Latitude(deg)": 39.024610439106496,
        "Longitude(deg)": -98.88910038039128,
        "Mean Anomaly(deg)": 117.39845359174524,
        "RAAN(deg)": 234.99734030921823,
        "Satellite Name": "Constellation 1 1041",
        "Satellite Number": 1041,
        "Semi-Major Axis(m)": 7083131.272910544,
        "Time(s)": 47
    },
    {
        "Altitude(m)": 705961.6096302246,
        "Argument of Periapsis(deg)": 0.00287750429977947,
        "Eccentricity": 0.0,
        "Inclination(deg)": 45.0,
        "Latitude(deg)": 38.99910991524672,
        "Longitude(deg)": -98.82239866778198,
        "Mean Anomaly(deg)": 117.45915473199513,
        "RAAN(deg)": 234.99728372005265,
        "Satellite Name": "Constellation 1 1041",
        "Satellite Number": 1041,
        "Semi-Major Axis(m)": 7083131.272910544,
        "Time(s)": 48
    },
    {
        "Altitude(m)": 705956.2516658251,
        "Argument of Periapsis(deg)": 0.002937452306024875,
        "Eccentricity": 0.0,
        "Inclination(deg)": 45.0,
        "Latitude(deg)": 38.97356634942137,
        "Longitude(deg)": -98.75574777608355,
        "Mean Anomaly(deg)": 117.51985587224506,
        "RAAN(deg)": 234.9972271308871,
        "Satellite Name": "Constellation 1 1041",
        "Satellite Number": 1041,
        "Semi-Major Axis(m)": 7083131.272910544,
        "Time(s)": 49
    },
    {
        "Altitude(m)": 705950.8871569444,
        "Argument of Periapsis(deg)": 0.0029974003122702807,
        "Eccentricity": 0.0,
        "Inclination(deg)": 45.0,
        "Latitude(deg)": 38.94797981090039,
        "Longitude(deg)": -98.68914770788349,
        "Mean Anomaly(deg)": 117.58055701249495,
        "RAAN(deg)": 234.99717054172152,
        "Satellite Name": "Constellation 1 1041",
        "Satellite Number": 1041,
        "Semi-Major Axis(m)": 7083131.272910544,
        "Time(s)": 50
    },
    {
        "Altitude(m)": 705945.5161364366,
        "Argument of Periapsis(deg)": 0.0030573483185156866,
        "Eccentricity": 0.0,
        "Inclination(deg)": 45.0,
        "Latitude(deg)": 38.92235036893713,
        "Longitude(deg)": -98.62259846537299,
        "Mean Anomaly(deg)": 117.64125815274488,
        "RAAN(deg)": 234.99711395255594,
        "Satellite Name": "Constellation 1 1041",
        "Satellite Number": 1041,
        "Semi-Major Axis(m)": 7083131.272910544,
        "Time(s)": 51
    },
    {
        "Altitude(m)": 705940.1386372219,
        "Argument of Periapsis(deg)": 0.003117296324761092,
        "Eccentricity": 0.0,
        "Inclination(deg)": 45.0,
        "Latitude(deg)": 38.89667809276827,
        "Longitude(deg)": -98.5561002184453,
        "Mean Anomaly(deg)": 117.70195929299472,
        "RAAN(deg)": 234.99705736339035,
        "Satellite Name": "Constellation 1 1041",
        "Satellite Number": 1041,
        "Semi-Major Axis(m)": 7083131.272910544,
        "Time(s)": 52
    },
    {
        "Altitude(m)": 705934.7546922547,
        "Argument of Periapsis(deg)": 0.0031772443310064975,
        "Eccentricity": 0.0,
        "Inclination(deg)": 45.0,
        "Latitude(deg)": 38.8709630516125,
        "Longitude(deg)": -98.48965263231,
        "Mean Anomaly(deg)": 117.76266043324472,
        "RAAN(deg)": 234.9970007742248,
        "Satellite Name": "Constellation 1 1041",
        "Satellite Number": 1041,
        "Semi-Major Axis(m)": 7083131.272910544,
        "Time(s)": 53
    },
    {
        "Altitude(m)": 705929.3643345378,
        "Argument of Periapsis(deg)": 0.0032371923372519038,
        "Eccentricity": 0.0,
        "Inclination(deg)": 45.0,
        "Latitude(deg)": 38.84520531467111,
        "Longitude(deg)": -98.4232558760758,
        "Mean Anomaly(deg)": 117.82336157349455,
        "RAAN(deg)": 234.99694418505925,
        "Satellite Name": "Constellation 1 1041",
        "Satellite Number": 1041,
        "Semi-Major Axis(m)": 7083131.272910544,
        "Time(s)": 54
    },
    {
        "Altitude(m)": 705923.9675971238,
        "Argument of Periapsis(deg)": 0.0032971403434973088,
        "Eccentricity": 0.0,
        "Inclination(deg)": 45.0,
        "Latitude(deg)": 38.8194049511267,
        "Longitude(deg)": -98.35690995036373,
        "Mean Anomaly(deg)": 117.88406271374444,
        "RAAN(deg)": 234.99688759589367,
        "Satellite Name": "Constellation 1 1041",
        "Satellite Number": 1041,
        "Semi-Major Axis(m)": 7083131.272910544,
        "Time(s)": 55
    },
    {
        "Altitude(m)": 705918.5645131128,
        "Argument of Periapsis(deg)": 0.0033570883497427146,
        "Eccentricity": 0.0,
        "Inclination(deg)": 45.0,
        "Latitude(deg)": 38.79356203014282,
        "Longitude(deg)": -98.29061485540645,
        "Mean Anomaly(deg)": 117.94476385399437,
        "RAAN(deg)": 234.9968310067281,
        "Satellite Name": "Constellation 1 1041",
        "Satellite Number": 1041,
        "Semi-Major Axis(m)": 7083131.272910544,
        "Time(s)": 56
    }
]